IRIDIUM 36              
1 24967U 97056C   24354.20259509  .00000782  00000+0  25569-3 0  9991
2 24967  86.3971 248.5593 0001907  84.1465 275.9950 14.37298847426366
IRIDIUM 39              
1 25042U 97069D   24354.23539799  .00001450  00000+0  37857-3 0  9991
2 25042  86.3907 288.2911 0017568 180.4435 179.6757 14.48731187422904
IRIDIUM 38              
1 25043U 97069E   24354.14927510  .00001095  00000+0  35748-3 0  9996
2 25043  86.3952 308.9239 0002227  36.3865 323.7484 14.37788433420080
IRIDIUM 44              
1 25078U 97077B   24354.23658019  .00000960  00000+0  29939-3 0  9993
2 25078  86.3949 297.2307 0000467 104.6877 255.4373 14.39917724417809
IRIDIUM 45              
1 25104U 97082A   24354.23020434  .00022760  00000+0  10247-2 0  9996
2 25104  86.3634 134.6767 0135777 281.9331  76.6712 15.12963330424748
IRIDIUM 24              
1 25105U 97082B   24354.16199251  .00001103  00000+0  33219-3 0  9996
2 25105  86.3925 156.6145 0010069 320.9715  39.0758 14.41740756417271
IRIDIUM 51              
1 25262U 98018A   24353.98629649  .00040824  00000+0  13770-2 0  9990
2 25262  86.3910 143.9864 0114850 215.3699 143.9892 15.24333864419431
